{
  "links" : {
    "next" : "https://api.nasa.gov/neo/rest/v1/feed?start_date=1999-11-09&end_date=1999-11-09&detailed=true&api_key=t0TVs3DtDT2H8Oy2Zy8m2eVrNsAVKAexjcZXUckd",
    "prev" : "https://api.nasa.gov/neo/rest/v1/feed?start_date=1999-11-07&end_date=1999-11-07&detailed=true&api_key=t0TVs3DtDT2H8Oy2Zy8m2eVrNsAVKAexjcZXUckd",
    "self" : "https://api.nasa.gov/neo/rest/v1/feed?start_date=1999-11-08&end_date=1999-11-08&detailed=true&api_key=t0TVs3DtDT2H8Oy2Zy8m2eVrNsAVKAexjcZXUckd"
  },
  "element_count" : 2,
  "near_earth_objects" : {
    "1999-11-08" : [ {
      "links" : {
        "self" : "https://api.nasa.gov/neo/rest/v1/neo/2163818?api_key=t0TVs3DtDT2H8Oy2Zy8m2eVrNsAVKAexjcZXUckd"
      },
      "neo_reference_id" : "2163818",
      "name" : "163818 (2003 RX7)",
      "nasa_jpl_url" : "http://ssd.jpl.nasa.gov/sbdb.cgi?sstr=2163818",
      "absolute_magnitude_h" : 18.4,
      "estimated_diameter" : {
        "kilometers" : {
          "estimated_diameter_min" : 0.5553349116,
          "estimated_diameter_max" : 1.2417666126
        },
        "meters" : {
          "estimated_diameter_min" : 555.334911581,
          "estimated_diameter_max" : 1241.766612574
        },
        "miles" : {
          "estimated_diameter_min" : 0.3450690093,
          "estimated_diameter_max" : 0.7715977618
        },
        "feet" : {
          "estimated_diameter_min" : 1821.9649913114,
          "estimated_diameter_max" : 4074.0375731972
        }
      },
      "is_potentially_hazardous_asteroid" : true,
      "close_approach_data" : [ {
        "close_approach_date" : "1999-11-08",
        "epoch_date_close_approach" : 942048000000,
        "relative_velocity" : {
          "kilometers_per_second" : "14.3021572937",
          "kilometers_per_hour" : "51487.7662573229",
          "miles_per_hour" : "31992.4956502793"
        },
        "miss_distance" : {
          "astronomical" : "0.1268751004",
          "lunar" : "49.3544158936",
          "kilometers" : "18980246",
          "miles" : "11793778"
        },
        "orbiting_body" : "Earth"
      } ],
      "orbital_data" : {
        "orbit_id" : "84",
        "orbit_determination_date" : "2017-04-06 09:26:10",
        "orbit_uncertainty" : "0",
        "minimum_orbit_intersection" : ".026241",
        "jupiter_tisserand_invariant" : "5.127",
        "epoch_osculation" : "2458000.5",
        "eccentricity" : ".3543832865094087",
        "semi_major_axis" : "1.229203336360471",
        "inclination" : "10.38987494598176",
        "ascending_node_longitude" : "241.0761612960961",
        "orbital_period" : "497.7760789915132",
        "perihelion_distance" : ".7935942182327171",
        "perihelion_argument" : "245.840401531975",
        "aphelion_distance" : "1.664812454488225",
        "perihelion_time" : "2458016.837125135150",
        "mean_anomaly" : "348.1847173922666",
        "mean_motion" : ".723216753865221",
        "equinox" : "J2000"
      }
    }, {
      "links" : {
        "self" : "https://api.nasa.gov/neo/rest/v1/neo/3306214?api_key=t0TVs3DtDT2H8Oy2Zy8m2eVrNsAVKAexjcZXUckd"
      },
      "neo_reference_id" : "3306214",
      "name" : "(2005 XB1)",
      "nasa_jpl_url" : "http://ssd.jpl.nasa.gov/sbdb.cgi?sstr=3306214",
      "absolute_magnitude_h" : 22.0,
      "estimated_diameter" : {
        "kilometers" : {
          "estimated_diameter_min" : 0.1058168859,
          "estimated_diameter_max" : 0.2366137501
        },
        "meters" : {
          "estimated_diameter_min" : 105.8168859331,
          "estimated_diameter_max" : 236.6137501138
        },
        "miles" : {
          "estimated_diameter_min" : 0.0657515442,
          "estimated_diameter_max" : 0.1470249225
        },
        "feet" : {
          "estimated_diameter_min" : 347.1682720448,
          "estimated_diameter_max" : 776.2918559233
        }
      },
      "is_potentially_hazardous_asteroid" : false,
      "close_approach_data" : [ {
        "close_approach_date" : "1999-11-08",
        "epoch_date_close_approach" : 942048000000,
        "relative_velocity" : {
          "kilometers_per_second" : "8.5208679787",
          "kilometers_per_hour" : "30675.1247233146",
          "miles_per_hour" : "19060.3295815507"
        },
        "miss_distance" : {
          "astronomical" : "0.2227668175",
          "lunar" : "86.656288147",
          "kilometers" : "33325442",
          "miles" : "20707470"
        },
        "orbiting_body" : "Earth"
      } ],
      "orbital_data" : {
        "orbit_id" : "19",
        "orbit_determination_date" : "2017-04-06 09:09:42",
        "orbit_uncertainty" : "0",
        "minimum_orbit_intersection" : ".0707555",
        "jupiter_tisserand_invariant" : "5.437",
        "epoch_osculation" : "2458000.5",
        "eccentricity" : ".4186657960904692",
        "semi_major_axis" : "1.131065345402811",
        "inclination" : "8.70796918416139",
        "ascending_node_longitude" : "73.36033519705404",
        "orbital_period" : "439.3695661351827",
        "perihelion_distance" : ".6575269721394015",
        "perihelion_argument" : "232.8638961842283",
        "aphelion_distance" : "1.60460371866622",
        "perihelion_time" : "2458007.307682492774",
        "mean_anomaly" : "354.4220859014968",
        "mean_motion" : ".8193557946369853",
        "equinox" : "J2000"
      }
    } ]
  }
}